{
  "type": "FeatureCollection",
  "features": [
    {
      "type": "Feature",
      "properties": {
        "norad_id": 38857,
        "name": "GSAT0103 (GALILEO-FM3)",
        "group": "gnss",
        "lat": -54.84274949724989,
        "lon": 2.238861443082313,
        "alt_km": 23220.550990961397,
        "timestamp": "2025-12-13T08:49:15.928351+00:00",
        "meta_object_name": "GSAT0103 (GALILEO-FM3)",
        "meta_object_id": "2012-055A",
        "meta_epoch": "2025-12-10T14:16:18.944544",
        "meta_mean_motion": 1.70473311,
        "meta_eccentricity": 0.00025926,
        "meta_inclination": 55.6913,
        "meta_ra_of_asc_node": 106.7254,
        "meta_arg_of_pericenter": 268.6178,
        "meta_mean_anomaly": 91.322,
        "meta_ephemeris_type": 0,
        "meta_classification_type": "U",
        "meta_norad_cat_id": 38857,
        "meta_element_set_no": 999,
        "meta_rev_at_epoch": 8179,
        "meta_bstar": 0,
        "meta_mean_motion_dot": 1.1e-07,
        "meta_mean_motion_ddot": 0,
        "tle_line1": "1 38857U 12055A   25344.59466371  .00000011  00000+0  00000+0 0  9993",
        "tle_line2": "2 38857  55.6913 106.7254 0002592 268.6178  91.3220  1.70473311 81792"
      },
      "geometry": {
        "type": "Point",
        "coordinates": [
          2.238861443082313,
          -54.84274949724989
        ]
      }
    },
    {
      "type": "Feature",
      "properties": {
        "norad_id": 38953,
        "name": "BEIDOU-2 G6 (C02)",
        "group": "gnss",
        "lat": -2.708846512594004,
        "lon": -61.53043933477149,
        "alt_km": 35774.12878954064,
        "timestamp": "2025-12-13T08:49:15.928365+00:00",
        "meta_object_name": "BEIDOU-2 G6 (C02)",
        "meta_object_id": "2012-059A",
        "meta_epoch": "2025-12-12T20:43:44.499936",
        "meta_mean_motion": 1.00269643,
        "meta_eccentricity": 0.00078194,
        "meta_inclination": 3.9499,
        "meta_ra_of_asc_node": 75.5054,
        "meta_arg_of_pericenter": 289.7326,
        "meta_mean_anomaly": 111.5098,
        "meta_ephemeris_type": 0,
        "meta_classification_type": "U",
        "meta_norad_cat_id": 38953,
        "meta_element_set_no": 999,
        "meta_rev_at_epoch": 4804,
        "meta_bstar": 0,
        "meta_mean_motion_dot": -1.63e-06,
        "meta_mean_motion_ddot": 0,
        "tle_line1": "1 38953U 12059A   25346.86370949 -.00000163  00000+0  00000+0 0  9990",
        "tle_line2": "2 38953   3.9499  75.5054 0007819 289.7326 111.5098  1.00269643 48044"
      },
      "geometry": {
        "type": "Point",
        "coordinates": [
          -61.53043933477149,
          -2.708846512594004
        ]
      }
    },
    {
      "type": "Feature",
      "properties": {
        "norad_id": 38977,
        "name": "LUCH 5B (SDCM/PRN 125)",
        "group": "gnss",
        "lat": 5.536200115521543,
        "lon": -161.3685733966113,
        "alt_km": 35764.743227474486,
        "timestamp": "2025-12-13T08:49:15.928378+00:00",
        "meta_object_name": "LUCH 5B (SDCM/PRN 125)",
        "meta_object_id": "2012-061A",
        "meta_epoch": "2025-12-12T23:40:28.445376",
        "meta_mean_motion": 1.00272307,
        "meta_eccentricity": 0.00070891,
        "meta_inclination": 10.0822,
        "meta_ra_of_asc_node": 51.7049,
        "meta_arg_of_pericenter": 193.3142,
        "meta_mean_anomaly": 175.6845,
        "meta_ephemeris_type": 0,
        "meta_classification_type": "U",
        "meta_norad_cat_id": 38977,
        "meta_element_set_no": 999,
        "meta_rev_at_epoch": 4774,
        "meta_bstar": 0,
        "meta_mean_motion_dot": -1.3e-06,
        "meta_mean_motion_ddot": 0,
        "tle_line1": "1 38977U 12061A   25346.98644034 -.00000130  00000+0  00000+0 0  9995",
        "tle_line2": "2 38977  10.0822  51.7049 0007089 193.3142 175.6845  1.00272307 47742"
      },
      "geometry": {
        "type": "Point",
        "coordinates": [
          -161.3685733966113,
          5.536200115521543
        ]
      }
    },
    {
      "type": "Feature",
      "properties": {
        "norad_id": 39155,
        "name": "COSMOS 2485 (747)",
        "group": "gnss",
        "lat": -33.751732615813076,
        "lon": -82.27757939503003,
        "alt_km": 19072.828580618505,
        "timestamp": "2025-12-13T08:49:15.928393+00:00",
        "meta_object_name": "COSMOS 2485 (747)",
        "meta_object_id": "2013-019A",
        "meta_epoch": "2025-12-11T16:13:03.281952",
        "meta_mean_motion": 2.13102869,
        "meta_eccentricity": 0.00245837,
        "meta_inclination": 65.313,
        "meta_ra_of_asc_node": 79.9029,
        "meta_arg_of_pericenter": 229.3313,
        "meta_mean_anomaly": 130.4708,
        "meta_ephemeris_type": 0,
        "meta_classification_type": "U",
        "meta_norad_cat_id": 39155,
        "meta_element_set_no": 999,
        "meta_rev_at_epoch": 9828,
        "meta_bstar": 0,
        "meta_mean_motion_dot": -3.1e-07,
        "meta_mean_motion_ddot": 0,
        "tle_line1": "1 39155U 13019A   25345.67573243 -.00000031  00000+0  00000+0 0  9996",
        "tle_line2": "2 39155  65.3130  79.9029 0024583 229.3313 130.4708  2.13102869 98286"
      },
      "geometry": {
        "type": "Point",
        "coordinates": [
          -82.27757939503003,
          -33.751732615813076
        ]
      }
    },
    {
      "type": "Feature",
      "properties": {
        "norad_id": 39166,
        "name": "GPS BIIF-4  (PRN 27)",
        "group": "gnss",
        "lat": 48.333072217987166,
        "lon": 43.7268519931952,
        "alt_km": 20018.09035911398,
        "timestamp": "2025-12-13T08:49:15.928405+00:00",
        "meta_object_name": "GPS BIIF-4  (PRN 27)",
        "meta_object_id": "2013-023A",
        "meta_epoch": "2025-12-12T05:11:52.937952",
        "meta_mean_motion": 2.0056516,
        "meta_eccentricity": 0.0137857,
        "meta_inclination": 54.6524,
        "meta_ra_of_asc_node": 276.5895,
        "meta_arg_of_pericenter": 48.604,
        "meta_mean_anomaly": 312.5852,
        "meta_ephemeris_type": 0,
        "meta_classification_type": "U",
        "meta_norad_cat_id": 39166,
        "meta_element_set_no": 999,
        "meta_rev_at_epoch": 9213,
        "meta_bstar": 0,
        "meta_mean_motion_dot": -7.4e-07,
        "meta_mean_motion_ddot": 0,
        "tle_line1": "1 39166U 13023A   25346.21658493 -.00000074  00000+0  00000+0 0  9992",
        "tle_line2": "2 39166  54.6524 276.5895 0137857  48.6040 312.5852  2.00565160 92134"
      },
      "geometry": {
        "type": "Point",
        "coordinates": [
          43.7268519931952,
          48.333072217987166
        ]
      }
    },
    {
      "type": "Feature",
      "properties": {
        "norad_id": 39199,
        "name": "IRNSS-1A",
        "group": "gnss",
        "lat": -13.393431039666886,
        "lon": -93.83134296457126,
        "alt_km": 35698.09147538022,
        "timestamp": "2025-12-13T08:49:15.928417+00:00",
        "meta_object_name": "IRNSS-1A",
        "meta_object_id": "2013-034A",
        "meta_epoch": "2025-12-02T19:49:26.431104",
        "meta_mean_motion": 1.00279053,
        "meta_eccentricity": 0.00216608,
        "meta_inclination": 35.2852,
        "meta_ra_of_asc_node": 66.6964,
        "meta_arg_of_pericenter": 185.4059,
        "meta_mean_anomaly": 172.3398,
        "meta_ephemeris_type": 0,
        "meta_classification_type": "U",
        "meta_norad_cat_id": 39199,
        "meta_element_set_no": 999,
        "meta_rev_at_epoch": 4539,
        "meta_bstar": 0,
        "meta_mean_motion_dot": 6.5e-07,
        "meta_mean_motion_ddot": 0,
        "tle_line1": "1 39199U 13034A   25336.82600036  .00000065  00000+0  00000+0 0  9995",
        "tle_line2": "2 39199  35.2852  66.6964 0021660 185.4059 172.3398  1.00279053 45393"
      },
      "geometry": {
        "type": "Point",
        "coordinates": [
          -93.83134296457126,
          -13.393431039666886
        ]
      }
    },
    {
      "type": "Feature",
      "properties": {
        "norad_id": 39533,
        "name": "GPS BIIF-5  (PRN 30)",
        "group": "gnss",
        "lat": 47.36143267149219,
        "lon": -76.28617475573978,
        "alt_km": 20255.00057861119,
        "timestamp": "2025-12-13T08:49:15.928430+00:00",
        "meta_object_name": "GPS BIIF-5  (PRN 30)",
        "meta_object_id": "2014-008A",
        "meta_epoch": "2025-12-11T17:05:22.085952",
        "meta_mean_motion": 2.00574377,
        "meta_eccentricity": 0.0079189,
        "meta_inclination": 53.6311,
        "meta_ra_of_asc_node": 156.9665,
        "meta_arg_of_pericenter": 226.4865,
        "meta_mean_anomaly": 132.8633,
        "meta_ephemeris_type": 0,
        "meta_classification_type": "U",
        "meta_norad_cat_id": 39533,
        "meta_element_set_no": 999,
        "meta_rev_at_epoch": 8592,
        "meta_bstar": 0,
        "meta_mean_motion_dot": 8.7e-07,
        "meta_mean_motion_ddot": 0,
        "tle_line1": "1 39533U 14008A   25345.71206118  .00000087  00000+0  00000+0 0  9994",
        "tle_line2": "2 39533  53.6311 156.9665 0079189 226.4865 132.8633  2.00574377 85924"
      },
      "geometry": {
        "type": "Point",
        "coordinates": [
          -76.28617475573978,
          47.36143267149219
        ]
      }
    }
  ]
}